[{"OBJECT_NAME":"OBJECT V","OBJECT_ID":"2023-085V","EPOCH":"2026-03-09T21:44:00.165408","MEAN_MOTION":15.30745852,"ECCENTRICITY":0.00069081,"INCLINATION":97.4843,"RA_OF_ASC_NODE":179.3833,"ARG_OF_PERICENTER":71.0503,"MEAN_ANOMALY":289.1485,"EPHEMERIS_TYPE":0,"CLASSIFICATION_TYPE":"U","NORAD_CAT_ID":57023,"ELEMENT_SET_NO":999,"REV_AT_EPOCH":15149,"BSTAR":0.00067780507,"MEAN_MOTION_DOT":0.00020109,"MEAN_MOTION_DDOT":0},{"OBJECT_NAME":"STARLINK-31938","OBJECT_ID":"2024-098H","EPOCH":"2026-03-09T14:04:29.216928","MEAN_MOTION":15.27575057,"ECCENTRICITY":0.0002368,"INCLINATION":43.0016,"RA_OF_ASC_NODE":278.2884,"ARG_OF_PERICENTER":258.0482,"MEAN_ANOMALY":102.0104,"EPHEMERIS_TYPE":0,"CLASSIFICATION_TYPE":"U","NORAD_CAT_ID":59865,"ELEMENT_SET_NO":999,"REV_AT_EPOCH":10183,"BSTAR":0.00020509,"MEAN_MOTION_DOT":5.385e-5,"MEAN_MOTION_DDOT":0}]
